OBJECT_NAME,OBJECT_ID,EPOCH,MEAN_MOTION,ECCENTRICITY,INCLINATION,RA_OF_ASC_NODE,ARG_OF_PERICENTER,MEAN_ANOMALY,EPHEMERIS_TYPE,CLASSIFICATION_TYPE,NORAD_CAT_ID,ELEMENT_SET_NO,REV_AT_EPOCH,BSTAR,MEAN_MOTION_DOT,MEAN_MOTION_DDOT
STARLINK-1209,2020-012AE,2024-11-29T04:29:53.023200,15.06401141,.0001095,53.0554,296.3389,82.5474,277.5639,0,U,45206,999,26428,-.43151E-3,-.6703E-4,0
STARLINK-1210,2020-012AF,2024-11-28T16:07:46.291584,15.14312424,.0004332,53.0544,316.0964,51.1248,309.0131,0,U,45207,999,26491,.16933E-2,.31214E-3,0
STARLINK-1219,2020-012AJ,2024-11-28T15:42:54.685440,15.06385891,.0001224,53.0560,318.7321,76.9282,283.1843,0,U,45210,999,26476,-.18642E-3,-.3056E-4,0
STARLINK-1231,2020-012AL,2024-11-28T22:52:50.615040,15.06383774,.0001044,53.0552,317.3869,88.4991,271.6117,0,U,45212,999,26398,-.17286E-4,-.539E-5,0
STARLINK-1271,2020-012AR,2024-11-28T23:08:44.605824,15.06391699,.0001555,53.0558,317.3386,102.0729,258.0435,0,U,45217,999,26492,-.13289E-2,-.20016E-3,0
STARLINK-1187,2020-012AT,2024-11-29T03:43:16.166208,15.47322725,.0002494,53.0549,292.9035,101.2160,258.9128,0,U,45219,999,26432,.12988E-2,.67549E-3,0
STARLINK-1189,2020-012AV,2024-11-29T03:58:01.668576,15.06394139,.0000845,53.0540,296.4398,91.2232,268.8854,0,U,45221,999,26429,.2473E-3,.3404E-4,0
STARLINK-1191,2020-012AW,2024-11-29T04:08:39.332544,15.06403803,.0001232,53.0544,296.4065,92.8652,267.2478,0,U,45222,999,26429,.66754E-3,.9676E-4,0
STARLINK-1212,2020-012AX,2024-11-29T04:35:17.869920,15.06397303,.000173,53.0554,296.9787,95.9979,264.1207,0,U,45223,999,26429,.29334E-3,.409E-4,0
STARLINK-1215,2020-012AZ,2024-11-28T14:47:10.140576,15.06403615,.0002373,53.0552,298.8955,79.2080,280.9176,0,U,45225,999,26510,.49852E-3,.7152E-4,0
STARLINK-1217,2020-012BA,2024-11-28T21:19:58.405152,15.06384396,.0001734,53.0563,297.6810,83.1295,276.9892,0,U,45226,999,26510,.1631E-3,.2148E-4,0
STARLINK-1221,2020-012BB,2024-11-29T03:36:53.977536,15.21772946,.0003792,53.0583,286.4710,27.3415,332.7780,0,U,45227,999,26440,.25818E-2,.59469E-3,0
STARLINK-1222,2020-012BC,2024-11-28T21:57:06.589440,15.06399124,.0002612,53.0543,297.5623,88.5657,271.5631,0,U,45228,999,26508,.4646E-3,.6645E-4,0
STARLINK-1226,2020-012BD,2024-11-28T22:39:32.418144,15.06391055,.0001549,53.0548,297.4300,85.4277,274.6889,0,U,45229,999,26509,-.33391E-3,-.525E-4,0
STARLINK-1227,2020-012BE,2024-11-28T20:58:42.691872,15.06395320,.000231,53.0574,297.7468,106.2323,253.8921,0,U,45230,999,26425,.85612E-4,.993E-5,0
STARLINK-1235,2020-012BG,2024-11-28T22:00:00.999936,15.49520925,.0004474,53.0636,251.2407,43.7219,328.2008,0,U,45232,999,581,.18447E-2,.104339E-2,0
STARLINK-1238,2020-012BH,2024-11-28T15:57:28.897056,15.06396303,.0003001,53.0574,318.6691,80.6393,279.4935,0,U,45233,999,26486,-.44094E-4,-.939E-5,0
STARLINK-1246,2020-012BK,2024-11-28T18:08:52.670688,15.06405299,.0002973,53.0525,338.2784,77.1478,282.9843,0,U,45235,999,26463,.558E-6,-.274E-5,0
STARLINK-1247,2020-012BL,2024-11-29T04:51:05.661504,15.06401898,.0002101,53.0544,296.2728,105.3977,254.7244,0,U,45236,999,26430,-.10151E-3,-.1794E-4,0
STARLINK-1270,2020-012BM,2024-11-28T21:25:16.506624,15.06373495,.0001134,53.0545,297.6596,94.6689,265.4429,0,U,45237,999,26425,.23302E-5,-.247E-5,0
STARLINK-1279,2020-019A,2024-11-27T07:48:07.380288,15.06374493,.0001638,53.0540,74.6981,108.9401,251.1766,0,U,45360,999,25969,-.32538E-3,-.5121E-4,0
STARLINK-1301,2020-019B,2024-11-28T18:32:42.836928,15.06445490,.0001127,53.0538,78.2017,69.4089,290.7021,0,U,45361,999,25978,.16619E-2,.2459E-3,0
STARLINK-1306,2020-019C,2024-11-28T19:39:07.534944,15.06422614,.0001155,53.0531,97.9941,92.1099,268.0022,0,U,45362,999,25951,.20415E-2,.30276E-3,0
STARLINK-1313,2020-019E,2024-11-28T23:50:07.815264,16.23579025,.0000872,52.9932,304.8989,40.2129,33.1474,0,U,45364,999,26165,.1975E-2,.5224843E-1,.11927E-4
STARLINK-1262,2020-019G,2024-11-28T20:53:22.458912,15.06409848,.0001222,53.0521,97.7594,94.1220,265.9909,0,U,45366,999,25952,.3162E-3,.4433E-4,0
STARLINK-1273,2020-019H,2024-11-28T19:49:42.943008,15.06420140,.0001383,53.0538,97.9588,75.6154,284.4988,0,U,45367,999,25951,.92155E-3,.13479E-3,0
STARLINK-1276,2020-019J,2024-11-29T01:29:24.044640,15.06387526,.0001699,53.0533,96.8975,89.3902,270.7282,0,U,45368,999,25955,-.10631E-3,-.1864E-4,0
STARLINK-1277,2020-019K,2024-11-29T01:18:52.637760,15.06397753,.0001711,53.0530,97.5582,82.0680,278.0503,0,U,45369,999,25954,.82856E-4,.953E-5,0
STARLINK-1281,2020-019L,2024-11-29T01:13:28.429536,15.06394076,.0000872,53.0511,96.9502,74.7267,285.3819,0,U,45370,999,25952,.13952E-3,.1797E-4,0
STARLINK-1295,2020-019P,2024-11-29T01:43:52.944384,15.08892741,.0001777,53.0517,96.1083,166.9933,193.1104,0,U,45373,999,25956,.74412E-3,.11592E-3,0
STARLINK-1300,2020-019Q,2024-11-29T01:45:20.036448,15.06383317,.0001162,53.0557,96.8495,93.9452,266.1670,0,U,45374,999,25955,-.51731E-4,-.1051E-4,0
STARLINK-1302,2020-019R,2024-11-29T02:06:32.196096,15.06398045,.0001152,53.0549,96.7838,111.9403,248.1708,0,U,45375,999,25955,-.13082E-3,-.2229E-4,0
STARLINK-1304,2020-019S,2024-11-28T18:35:22.657056,15.06413108,.0001297,53.0536,98.1882,84.8009,275.3128,0,U,45376,999,25950,.55179E-3,.795E-4,0
STARLINK-1305,2020-019T,2024-11-29T01:34:41.447136,15.06389990,.0001722,53.0542,96.8827,76.5571,283.5609,0,U,45377,999,25955,-.15903E-3,-.2649E-4,0
STARLINK-1319,2020-019V,2024-11-29T01:24:03.765024,15.06408253,.0000996,53.0537,96.9119,96.7570,263.3532,0,U,45379,999,25955,-.81067E-4,-.1489E-4,0
STARLINK-1207,2020-019W,2024-11-28T22:00:00.999936,15.52839933,.0001207,53.0489,74.1930,60.3003,177.6278,0,U,45380,999,585,.17141E-1,.1186712E-1,0
STARLINK-1258,2020-019X,2024-11-28T17:39:40.863168,15.06425710,.0001283,53.0554,78.3656,85.4893,274.6242,0,U,45381,999,25977,.23803E-2,.35376E-3,0
STARLINK-1266,2020-019Z,2024-11-28T19:04:33.769056,15.06440573,.00013,53.0540,78.1009,101.2961,258.8174,0,U,45383,999,25978,.16779E-2,.24827E-3,0
STARLINK-1267,2020-019AA,2024-11-28T18:43:26.688000,15.06458664,.0001419,53.0548,78.8234,91.6775,268.4377,0,U,45384,999,25977,.16268E-2,.24071E-3,0
STARLINK-1272,2020-019AC,2024-11-28T18:53:57.221376,15.06416885,.0001505,53.0552,78.1333,91.1006,269.0155,0,U,45386,999,25978,.14115E-3,.1822E-4,0
STARLINK-1274,2020-019AD,2024-11-28T08:17:01.632192,15.06414812,.0001409,53.0554,80.1189,86.9987,273.1164,0,U,45387,999,25971,.16291E-2,.24077E-3,0
STARLINK-1280,2020-019AE,2024-11-28T17:05:09.205440,15.06411163,.0001555,53.0534,98.4691,85.5583,274.5584,0,U,45388,999,25948,.5045E-3,.7243E-4,0
STARLINK-1283,2020-019AF,2024-11-28T19:47:02.188896,15.06385847,.0001248,53.0541,77.9654,129.1574,230.9526,0,U,45389,999,25979,.19706E-2,.29181E-3,0
STARLINK-1284,2020-019AG,2024-11-28T17:34:22.036800,15.06433336,.000128,53.0545,78.3826,77.0455,283.0677,0,U,45390,999,25977,.14841E-2,.21913E-3,0
STARLINK-1291,2020-019AK,2024-11-29T06:00:00.999648,15.56830664,.0001054,53.0560,72.1186,75.9203,186.3674,0,U,45393,999,25966,.15581E-1,.1254211E-1,0
STARLINK-1292,2020-019AL,2024-11-28T16:09:25.724160,15.06407325,.0001234,53.0544,78.6458,100.4684,259.6444,0,U,45394,999,25950,.11455E-3,.1426E-4,0
STARLINK-1297,2020-019AM,2024-11-28T18:27:24.288768,15.06423839,.0001755,53.0553,78.2154,72.6322,287.4859,0,U,45395,999,25896,.27684E-3,.3847E-4,0
STARLINK-1303,2020-019AN,2024-11-29T06:00:00.999648,15.45705210,.0000929,53.0525,73.4339,96.4147,357.5100,0,U,45396,999,25960,.75057E-3,.36578E-3,0
STARLINK-1307,2020-019AP,2024-11-28T19:52:19.531776,15.06440150,.0001136,53.0525,77.9485,103.0278,257.0838,0,U,45397,999,25961,.16127E-2,.23847E-3,0
STARLINK-1312,2020-019AQ,2024-11-28T16:30:38.557728,15.06441670,.0001497,53.0532,78.5794,81.9929,278.1230,0,U,45398,999,25952,.16197E-2,.23953E-3,0
STARLINK-1255,2020-019AR,2024-11-28T12:43:45.144768,15.06435654,.0000738,53.0542,69.2878,104.7645,255.3426,0,U,45399,999,25969,.14756E-2,.21787E-3,0
STARLINK-1213,2020-019AS,2024-11-28T22:00:00.999936,15.61508558,.0000692,53.0745,345.4517,165.4210,180.6007,0,U,45400,999,570,.25594E-2,.229181E-2,0
STARLINK-1256,2020-019AT,2024-11-28T12:59:40.186176,15.06398081,.0002521,53.0553,69.2336,104.1909,255.9360,0,U,45401,999,25969,.48292E-4,.437E-5,0
STARLINK-1259,2020-019AV,2024-11-27T16:33:35.117856,15.06387504,.0001696,53.0539,73.0608,110.7539,249.3632,0,U,45403,999,25956,.18137E-2,.26828E-3,0
STARLINK-1260,2020-019AW,2024-11-28T18:18:06.993216,15.06444899,.000159,53.0539,68.2462,97.1249,262.9921,0,U,45404,999,25963,.1109E-2,.16296E-3,0
STARLINK-1263,2020-019AX,2024-11-28T13:10:17.337792,15.06403213,.0001437,53.0535,69.2030,84.1453,275.9700,0,U,45405,999,25960,.7392E-3,.10747E-3,0
STARLINK-1265,2020-019AY,2024-11-28T13:20:53.585664,15.06430659,.0001418,53.0548,69.1702,101.5514,258.5634,0,U,45406,999,25960,.2046E-2,.30351E-3,0
STARLINK-1275,2020-019AZ,2024-11-28T15:13:12.809856,15.41958151,.0004233,53.0534,30.9348,334.3615,25.7179,0,U,45407,999,26015,.11476E-2,.49528E-3,0
STARLINK-1278,2020-019BA,2024-11-28T18:45:59.344704,15.06419204,.0001221,53.0524,98.1595,97.2343,262.8785,0,U,45408,999,25922,.55098E-3,.7939E-4,0
STARLINK-1282,2020-019BB,2024-11-28T17:03:50.352480,15.06418508,.0001309,53.0545,68.4763,94.9406,265.1733,0,U,45409,999,25963,.74139E-3,.10784E-3,0
STARLINK-1293,2020-019BD,2024-11-28T19:00:36.594144,15.06395638,.0002281,53.0544,68.1114,70.5409,289.5827,0,U,45411,999,25966,-.10593E-3,-.1859E-4,0
STARLINK-1296,2020-019BE,2024-11-28T18:12:48.267936,15.06466923,.0001695,53.0547,68.2636,91.3351,268.7832,0,U,45412,999,25963,.18739E-2,.27791E-3,0
STARLINK-1298,2020-019BF,2024-11-28T18:55:19.137216,15.06420660,.0002251,53.0551,68.1270,67.7255,292.3972,0,U,45413,999,25973,.14192E-2,.20933E-3,0
STARLINK-1309,2020-019BG,2024-11-28T16:58:31.486368,15.06425569,.0001503,53.0556,68.4922,88.4838,271.6323,0,U,45414,999,25961,.1021E-2,.14969E-3,0
STARLINK-1316,2020-019BH,2024-11-28T12:49:02.778816,15.06429669,.0001538,53.0531,69.2708,111.7603,248.3550,0,U,45415,999,25962,.21072E-2,.3127E-3,0
